[
    {
        "Altitude(m)": 622205.8626350382,
        "Argument of Periapsis(deg)": 0.0,
        "Eccentricity": 0.0,
        "Inclination(deg)": 60.0,
        "Latitude(deg)": -52.16242201343292,
        "Longitude(deg)": 12.700545103584398,
        "Mean Anomaly(deg)": -114.54549999999998,
        "RAAN(deg)": 245.0,
        "Satellite Name": "Test1 1093",
        "Satellite Number": 1093,
        "Semi-Major Axis(m)": 6980739.136638005,
        "Time(s)": 0
    },
    {
        "Altitude(m)": 622344.7686137387,
        "Argument of Periapsis(deg)": 0.00010418945913296404,
        "Eccentricity": 0.0,
        "Inclination(deg)": 60.0,
        "Latitude(deg)": -52.52000000740864,
        "Longitude(deg)": 13.481759174244639,
        "Mean Anomaly(deg)": -113.9253938545381,
        "RAAN(deg)": 244.99957995086027,
        "Satellite Name": "Test1 1093",
        "Satellite Number": 1093,
        "Semi-Major Axis(m)": 6980739.136638005,
        "Time(s)": 10
    }
]